NORAD_CAT_ID,OBJECT_NAME,OBJECT_TYPE,EPOCH,MEAN_MOTION,ECCENTRICITY,INCLINATION,RA_OF_ASC_NODE,ARG_OF_PERICENTER,MEAN_ANOMALY,BSTAR,MEAN_MOTION_DOT,MEAN_MOTION_DDOT,TLE_LINE0,TLE_LINE1,TLE_LINE2,SEMIMAJOR_AXIS,PERIOD,APOGEE,PERIGEE,DECAYED
49171.0,STARLINK-3107,PAYLOAD,2023-05-14 21:11:45,14.98336332,0.0002394,70.0003,10.9557,249.264,110.8263,-9.7757e-07,-1.05e-06,0.0,0 STARLINK-3107,1 49171U 21082AT  23134.88316790 -.00000105  00000-0 -97757-6 0  9999,2 49171  70.0003  10.9557 0002394 249.2640 110.8263 14.98336332 92886,6950.173,96.107,573.702,570.374,0.0
49171.0,STARLINK-3107,PAYLOAD,2023-05-14 22:47:53,14.9833629,0.0002897,69.9997,10.7857,266.4346,93.6481,2.1383e-05,1.62e-06,0.0,0 STARLINK-3107,1 49171U 21082AT  23134.94992713  .00000162  00000-0  21383-4 0  9992,2 49171  69.9997  10.7857 0002897 266.4346  93.6481 14.98336290 92892,6950.173,96.107,574.052,570.025,0.0
49171.0,STARLINK-3107,PAYLOAD,2023-05-15 08:24:42,14.98328,0.0002834,69.9998,9.7751,283.3542,76.7301,7.9011e-05,8.5e-06,0.0,0 STARLINK-3107,1 49171U 21082AT  23135.35049151  .00000850  00000-0  79011-4 0  9992,2 49171  69.9998   9.7751 0002834 283.3542  76.7301 14.98328000 92951,6950.199,96.107,574.034,570.094,0.0
49171.0,STARLINK-3107,PAYLOAD,2023-05-15 16:25:22,14.98328483,0.0002869,69.9997,8.9337,266.6738,93.4093,3.4413e-05,3.18e-06,0.0,0 STARLINK-3107,1 49171U 21082AT  23135.68429025  .00000318  00000-0  34413-4 0  9996,2 49171  69.9997   8.9337 0002869 266.6738  93.4093 14.98328483 93006,6950.198,96.107,574.057,570.069,0.0
49171.0,STARLINK-3107,PAYLOAD,2023-05-16 14:51:15,14.98332142,0.0002829,69.9998,6.5771,265.857,94.2266,-2.7049e-05,-4.16e-06,0.0,0 STARLINK-3107,1 49171U 21082AT  23136.61892954 -.00000416  00000-0 -27049-4 0  9993,2 49171  69.9998   6.5771 0002829 265.8570  94.2266 14.98332142 93147,6950.186,96.107,574.017,570.085,0.0
49171.0,STARLINK-3107,PAYLOAD,2023-05-16 21:15:47,14.98331507,0.000284,69.9998,5.9034,268.5434,91.54,-3.0544e-05,-4.57e-06,0.0,0 STARLINK-3107,1 49171U 21082AT  23136.88596977 -.00000457  00000-0 -30544-4 0  9997,2 49171  69.9998   5.9034 0002840 268.5434  91.5400 14.98331507 93182,6950.188,96.107,574.027,570.079,0.0
49171.0,STARLINK-3107,PAYLOAD,2023-05-17 21:17:48,14.98327725,0.0002838,69.9997,3.3776,267.8476,92.2358,1.0096e-05,2.7e-07,0.0,0 STARLINK-3107,1 49171U 21082AT  23137.88737062  .00000027  00000-0  10096-4 0  9991,2 49171  69.9997   3.3776 0002838 267.8476  92.2358 14.98327725 93335,6950.2,96.107,574.037,570.092,0.0
49171.0,STARLINK-3107,PAYLOAD,2023-05-18 00:30:04,14.98331431,0.0002758,70.0002,3.0415,269.4594,90.6249,5.5757e-05,5.72e-06,0.0,0 STARLINK-3107,1 49171U 21082AT  23138.02088729  .00000572  00000-0  55757-4 0  9995,2 49171  70.0002   3.0415 0002758 269.4594  90.6249 14.98331431 93354,6950.188,96.107,573.97,570.137,0.0
49171.0,STARLINK-3107,PAYLOAD,2023-05-18 11:43:00,14.98338031,0.0002839,69.9999,1.8628,269.6003,90.4831,0.00011221,1.246e-05,0.0,0 STARLINK-3107,1 49171U 21082AT  23138.48819987  .00001246  00000-0  11221-3 0  9999,2 49171  69.9999   1.8628 0002839 269.6003  90.4831 14.98338031 93421,6950.168,96.106,574.006,570.06,0.0
49171.0,STARLINK-3107,PAYLOAD,2023-05-19 21:21:50,14.98325807,0.0002847,69.9999,358.328,270.6791,89.4042,-6.369e-05,-8.53e-06,0.0,0 STARLINK-3107,1 49171U 21082AT  23139.89016819 -.00000853  00000-0 -63690-4 0  9991,2 49171  69.9999 358.3280 0002847 270.6791  89.4042 14.98325807 93632,6950.206,96.107,574.05,570.092,0.0
49171.0,STARLINK-3107,PAYLOAD,2023-05-20 00:34:06,14.9832346,0.0002941,69.9997,357.9915,271.4984,88.5838,-9.3903e-05,-1.213e-05,0.0,0 STARLINK-3107,1 49171U 21082AT  23140.02369079 -.00001213  00000-0 -93903-4 0  9998,2 49171  69.9997 357.9915 0002941 271.4984  88.5838 14.98323460 93656,6950.213,96.107,574.122,570.034,0.0
49171.0,STARLINK-3107,PAYLOAD,2023-05-20 16:35:26,14.9833862,0.0003104,69.9993,356.309,269.0969,90.9834,-6.428e-05,-8.6e-06,0.0,0 STARLINK-3107,1 49171U 21082AT  23140.69127902 -.00000860  00000-0 -64280-4 0  9991,2 49171  69.9993 356.3090 0003104 269.0969  90.9834 14.98338620 93755,6950.166,96.106,574.189,569.874,0.0
49171.0,STARLINK-3107,PAYLOAD,2023-05-20 21:23:50,14.98340802,0.0003084,69.9994,355.8039,269.2347,90.8458,-3.2708e-05,-4.83e-06,0.0,0 STARLINK-3107,1 49171U 21082AT  23140.89155570 -.00000483  00000-0 -32708-4 0  9996,2 49171  69.9994 355.8039 0003084 269.2347  90.8458 14.98340802 93781,6950.159,96.106,574.168,569.881,0.0
49171.0,STARLINK-3107,PAYLOAD,2023-05-21 00:36:06,14.9833549,0.0003133,69.9992,355.4663,270.9721,89.108,0.00014315,1.616e-05,0.0,0 STARLINK-3107,1 49171U 21082AT  23141.02507279  .00001616  00000-0  14315-3 0  9999,2 49171  69.9992 355.4663 0003133 270.9721  89.1080 14.98335490 93800,6950.176,96.107,574.218,569.863,0.0
49171.0,STARLINK-3107,PAYLOAD,2023-05-21 15:01:20,14.9833101,0.0002451,70.0017,353.9546,256.0044,104.0842,-0.00014257,-1.794e-05,0.0,0 STARLINK-3107,1 49171U 21082AT  23141.62592808 -.00001794  00000-0 -14257-3 0  9991,2 49171  70.0017 353.9546 0002451 256.0044 104.0842 14.98331010 93895,6950.19,96.107,573.758,570.351,0.0
49171.0,STARLINK-3107,PAYLOAD,2023-05-21 18:13:36,14.98326831,0.0002539,70.0014,353.6181,254.9637,105.1241,-0.00012015,-1.526e-05,0.0,0 STARLINK-3107,1 49171U 21082AT  23141.75944946 -.00001526  00000-0 -12015-3 0  9992,2 49171  70.0014 353.6181 0002539 254.9637 105.1241 14.98326831 93919,6950.203,96.107,573.832,570.303,0.0
49171.0,STARLINK-3107,PAYLOAD,2023-05-22 00:38:09,14.98311788,0.0002673,70.0004,352.944,260.4374,99.6483,-6.959e-05,-9.23e-06,0.0,0 STARLINK-3107,1 49171U 21082AT  23142.02649869 -.00000923  00000-0 -69590-4 0  9990,2 49171  70.0004 352.9440 0002673 260.4374  99.6483 14.98311788 93951,6950.249,96.108,573.972,570.256,0.0
49171.0,STARLINK-3107,PAYLOAD,2023-05-22 07:02:41,14.98321777,0.0003152,69.9993,352.2685,271.1309,88.9489,-2.1067e-05,-3.44e-06,0.0,0 STARLINK-3107,1 49171U 21082AT  23142.29353273 -.00000344  00000-0 -21067-4 0  9994,2 49171  69.9993 352.2685 0003152 271.1309  88.9489 14.98321777 93999,6950.218,96.108,574.274,569.893,0.0
49171.0,STARLINK-3107,PAYLOAD,2023-05-22 13:27:13,14.98328587,0.0003327,69.9986,351.5937,273.2271,86.8507,-7.6736e-05,-1.009e-05,0.0,0 STARLINK-3107,1 49171U 21082AT  23142.56057103 -.00001009  00000-0 -76736-4 0  9999,2 49171  69.9986 351.5937 0003327 273.2271  86.8507 14.98328587 94038,6950.197,96.107,574.375,569.75,0.0
49171.0,STARLINK-3107,PAYLOAD,2023-05-22 19:51:45,14.98331487,0.0003312,69.9985,350.921,271.9816,88.0963,-3.4619e-05,-5.06e-06,0.0,0 STARLINK-3107,1 49171U 21082AT  23142.82760815 -.00000506  00000-0 -34619-4 0  9994,2 49171  69.9985 350.9210 0003312 271.9816  88.0963 14.98331487 94075,6950.188,96.107,574.355,569.751,0.0
49171.0,STARLINK-3107,PAYLOAD,2023-05-23 19:53:45,14.98331425,0.0003391,69.9984,348.3959,273.9102,86.1669,0.00017641,2.013e-05,0.0,0 STARLINK-3107,1 49171U 21082AT  23143.82900272  .00002013  00000-0  17641-3 0  9996,2 49171  69.9984 348.3959 0003391 273.9102  86.1669 14.98331425 94223,6950.188,96.107,574.41,569.697,0.0
49171.0,STARLINK-3107,PAYLOAD,2023-05-24 15:07:23,14.98329422,0.0003124,69.999,346.3759,273.3666,86.7135,1.5944e-06,-7.4e-07,0.0,0 STARLINK-3107,1 49171U 21082AT  23144.63012873 -.00000074  00000-0  15944-5 0  9999,2 49171  69.9990 346.3759 0003124 273.3666  86.7135 14.98329422 94340,6950.195,96.107,574.231,569.888,0.0
49171.0,STARLINK-3107,PAYLOAD,2023-05-25 18:21:39,14.98335789,0.0003147,69.999,343.5138,272.3759,87.7039,-2.0076e-05,-3.33e-06,0.0,0 STARLINK-3107,1 49171U 21082AT  23145.76504300 -.00000333  00000-0 -20076-4 0  9995,2 49171  69.9990 343.5138 0003147 272.3759  87.7039 14.98335789 94513,6950.175,96.107,574.227,569.853,0.0
49171.0,STARLINK-3107,PAYLOAD,2023-05-25 21:33:55,14.98336218,0.0003137,69.999,343.177,272.2375,87.8425,-1.302e-05,-2.48e-06,0.0,0 STARLINK-3107,1 49171U 21082AT  23145.89856198 -.00000248  00000-0 -13020-4 0  9990,2 49171  69.9990 343.1770 0003137 272.2375  87.8425 14.98336218 94533,6950.174,96.107,574.219,569.858,0.0
49171.0,STARLINK-3107,PAYLOAD,2023-05-26 13:35:16,14.9832869,0.0003102,69.999,341.494,270.4474,89.633,2.4265e-05,1.96e-06,0.0,0 STARLINK-3107,1 49171U 21082AT  23146.56616419  .00000196  00000-0  24265-4 0  9998,2 49171  69.9990 341.4940 0003102 270.4474  89.6330 14.98328690 94636,6950.197,96.107,574.218,569.906,0.0
49171.0,STARLINK-3107,PAYLOAD,2023-05-26 18:23:40,14.98328472,0.0003117,69.9991,340.9891,270.5339,89.5463,1.8635e-05,1.29e-06,0.0,0 STARLINK-3107,1 49171U 21082AT  23146.76644456  .00000129  00000-0  18635-4 0  9992,2 49171  69.9991 340.9891 0003117 270.5339  89.5463 14.98328472 94660,6950.198,96.107,574.229,569.896,0.0
49171.0,STARLINK-3107,PAYLOAD,2023-05-26 21:35:56,14.98328219,0.0003119,69.9991,340.6525,270.558,89.5221,1.4454e-05,7.9e-07,0.0,0 STARLINK-3107,1 49171U 21082AT  23146.89996491  .00000079  00000-0  14454-4 0  9994,2 49171  69.9991 340.6525 0003119 270.5580  89.5221 14.98328219 94684,6950.198,96.107,574.231,569.896,0.0
49171.0,STARLINK-3107,PAYLOAD,2023-05-27 20:01:49,14.98331762,0.0003113,69.999,338.2953,268.219,91.8613,-4.3382e-06,-1.45e-06,0.0,0 STARLINK-3107,1 49171U 21082AT  23147.83460243 -.00000145  00000-0 -43382-5 0  9999,2 49171  69.9990 338.2953 0003113 268.2190  91.8613 14.98331762 94820,6950.187,96.107,574.216,569.889,0.0
49171.0,STARLINK-3107,PAYLOAD,2023-05-27 21:37:57,14.98331519,0.0003117,69.999,338.1269,268.4212,91.659,-6.7986e-06,-1.74e-06,0.0,0 STARLINK-3107,1 49171U 21082AT  23147.90136260 -.00000174  00000-0 -67986-5 0  9994,2 49171  69.9990 338.1269 0003117 268.4212  91.6590 14.98331519 94833,6950.188,96.107,574.22,569.887,0.0
49171.0,STARLINK-3107,PAYLOAD,2023-05-28 05:38:37,14.98331815,0.0003141,69.999,337.2852,268.2599,91.82,1.5066e-05,8.7e-07,0.0,0 STARLINK-3107,1 49171U 21082AT  23148.23516140  .00000087  00000-0  15066-4 0  9992,2 49171  69.9990 337.2852 0003141 268.2599  91.8200 14.98331815 94888,6950.187,96.107,574.235,569.869,0.0
